"hki_id","tel1","name","pref_cd","jyusyo_banti","zip_code","n_stations","jyusyo","jyusyo_all","city_cd","city_name","latitude","longitude","sginfo"
"520000265714490001","03-3460-6600","セブン‐イレブン／渋谷西原１丁目店","13","１５－１０","151-0066","幡ヶ谷駅,代々木上原駅","東京都渋谷区西原１丁目","東京都渋谷区西原１丁目１５－１０","13113","渋谷区","35.6750370099","139.6790041117","コンビニエンスストア"
"133240411135481800","03-5449-6870","ファミリーマート／恵比寿駅東店","13","１９－２３－１Ｆ","150-0013","恵比寿駅,代官山駅","東京都渋谷区恵比寿１丁目","東京都渋谷区恵比寿１丁目１９－２３－１Ｆ","13113","渋谷区","35.6472795687","139.7127745853","コンビニエンスストア"
"520000249230990001","03-5795-0445","ファミリーマート／恵比寿駅東口店","13","３－１－１Ｆ","150-0013","恵比寿駅,代官山駅","東京都渋谷区恵比寿４丁目","東京都渋谷区恵比寿４丁目３－１－１Ｆ","13113","渋谷区","35.6461216671","139.7113187595","コンビニエンスストア"
"132554946174381070","03-5778-9673","ファミリーマート／渋谷二丁目中央店","13","１１－３","150-0002","渋谷駅,表参道駅","東京都渋谷区渋谷２丁目","東京都渋谷区渋谷２丁目１１－３","13113","渋谷区","35.6599061255","139.7074684445","コンビニエンスストア"
"134432727135231300","03-3373-7410","セブン‐イレブン／渋谷代々木１丁目店","13","３６－４","151-0053","代々木駅,南新宿駅","東京都渋谷区代々木１丁目","東京都渋谷区代々木１丁目３６－４","13113","渋谷区","35.6839284466","139.7012038586","コンビニエンスストア"
"136751707132460830","03-5302-2099","ローソンストア１００渋谷本町六丁目店","13","８－３","151-0071","幡ヶ谷駅,初台駅","東京都渋谷区本町６丁目","東京都渋谷区本町６丁目８－３","13113","渋谷区","35.6826671879","139.6786727879","コンビニエンスストア"
"134624833152781380","03-5302-8980","ファミリーマート／初台交差点前店","13","３３－１０－１Ｆ","151-0053","初台駅,参宮橋駅","東京都渋谷区代々木４丁目","東京都渋谷区代々木４丁目３３－１０－１Ｆ","13113","渋谷区","35.6819424477","139.6891049549","コンビニエンスストア"
"520000161862230001","03-3377-8461","セブン‐イレブン／渋谷本町１丁目店","13","１０－１","151-0071","初台駅,幡ヶ谷駅","東京都渋谷区本町１丁目","東京都渋谷区本町１丁目１０－１","13113","渋谷区","35.6802005436","139.683928465","コンビニエンスストア"
"131552541191080990","03-5784-2702","ファミリーマート／渋谷神南北谷公園前店","13","１３－１４","150-0041","渋谷駅,明治神宮前〈原宿〉駅","東京都渋谷区神南１丁目","東京都渋谷区神南１丁目１３－１４","13113","渋谷区","35.6639915578","139.6999858778","コンビニエンスストア"
"138990155135781490","03-5308-2076","ファミリーマート／代々木三丁目店","13","２９－３－１Ｆ","151-0053","南新宿駅,都庁前駅","東京都渋谷区代々木３丁目","東京都渋谷区代々木３丁目２９－３－１Ｆ","13113","渋谷区","35.6847422218","139.693318476","コンビニエンスストア"
"131983151122261820","03-5794-0180","ファミリーマート／恵比寿銀座通り店","13","４－１３","150-0022","恵比寿駅,代官山駅","東京都渋谷区恵比寿南１丁目","東京都渋谷区恵比寿南１丁目４－１３","13113","渋谷区","35.6462966022","139.708674971","コンビニエンスストア"
"137075441195241950","03-5773-6085","ファミリーマート／恵比寿南一丁目店","13","１４－１５","150-0022","恵比寿駅,代官山駅","東京都渋谷区恵比寿南１丁目","東京都渋谷区恵比寿南１丁目１４－１５","13113","渋谷区","35.645682686","139.709713913","コンビニエンスストア"
"520000537291970001","03-3378-3963","ローソン／代々木西参道店","13","３７－７－１Ｆ","151-0053","参宮橋駅,南新宿駅","東京都渋谷区代々木３丁目","東京都渋谷区代々木３丁目３７－７－１Ｆ","13113","渋谷区","35.6820585016","139.6929026342","コンビニエンスストア"
"132377313100000899","03-3461-4074","ローソン／円山町店","13","１１－８","150-0044","神泉駅,渋谷駅","東京都渋谷区円山町","東京都渋谷区円山町１１－８","13113","渋谷区","35.659060982","139.6940785955","コンビニエンスストア"
"139215406166170950","03-5786-6545","ファミリーマート／神宮前三丁目店","13","７－７","150-0001","外苑前駅,表参道駅","東京都渋谷区神宮前３丁目","東京都渋谷区神宮前３丁目７－７","13113","渋谷区","35.6705940816","139.7131534802","コンビニエンスストア"
"520000074289500001","03-3280-0715","セブン‐イレブン／渋谷恵比寿３丁目店","13","３－３","150-0013","恵比寿駅,広尾駅","東京都渋谷区恵比寿３丁目","東京都渋谷区恵比寿３丁目３－３","13113","渋谷区","35.6452158849","139.7182402264","コンビニエンスストア"
"136512007150360680","03-5772-5038","ファミリーマート／千駄ヶ谷二丁目店","13","６－７","151-0051","北参道駅,千駄ケ谷駅","東京都渋谷区千駄ヶ谷２丁目","東京都渋谷区千駄ヶ谷２丁目６－７","13113","渋谷区","35.6753045049","139.7089846096","コンビニエンスストア"
"520000138826620001","03-5489-7854","ファミリーマート／渋谷桜丘町店","13","２４－１","150-0031","渋谷駅,神泉駅","東京都渋谷区桜丘町","東京都渋谷区桜丘町２４－１","13113","渋谷区","35.6569063318","139.700914127","コンビニエンスストア"
"134203617174480090","03-5773-6785","ファミリーマート／薬ヒグチ恵比寿アメリカ橋店","13","２４－２－２Ｆ","150-0022","恵比寿駅,代官山駅","東京都渋谷区恵比寿南１丁目","東京都渋谷区恵比寿南１丁目２４－２－２Ｆ","13113","渋谷区","35.6430300017","139.7115408834","コンビニエンスストア"
"139441707144920570","03-3444-0295","ローソン／広尾南店","13","８－１１－１０１","150-0012","恵比寿駅,広尾駅","東京都渋谷区広尾１丁目","東京都渋谷区広尾１丁目８－１１－１０１","13113","渋谷区","35.6486984712","139.7158822618","コンビニエンスストア"
"139870106152370670","03-5428-8123","ファミリーマート／渋谷公園通り店","13","３－３","150-0042","渋谷駅,神泉駅","東京都渋谷区宇田川町","東京都渋谷区宇田川町３－３","13113","渋谷区","35.6628196633","139.6988530259","コンビニエンスストア"
"131831926135670220","03-5414-2302","ファミリーマート／原宿竹下口店","13","１９－１１","150-0001","原宿駅,明治神宮前〈原宿〉駅","東京都渋谷区神宮前１丁目","東京都渋谷区神宮前１丁目１９－１１","13113","渋谷区","35.6717987804","139.7032882441","コンビニエンスストア"
"132719282100000899","03-3403-2609","ローソン／神宮前四丁目店","13","２９－３","150-0001","明治神宮前〈原宿〉駅,原宿駅","東京都渋谷区神宮前４丁目","東京都渋谷区神宮前４丁目２９－３","13113","渋谷区","35.6682212207","139.7065881347","コンビニエンスストア"
"520000195093880001","03-5308-2166","ファミリーマート／幡ヶ谷本町店","13","４５－２","151-0071","西新宿五丁目駅,中野新橋駅","東京都渋谷区本町４丁目","東京都渋谷区本町４丁目４５－２","13113","渋谷区","35.6855858583","139.6776757363","コンビニエンスストア"
"136914720106241330","03-3770-7840","セブン‐イレブン／渋谷道玄坂２丁目店","13","１１－４","150-0043","神泉駅,渋谷駅","東京都渋谷区道玄坂２丁目","東京都渋谷区道玄坂２丁目１１－４","13113","渋谷区","35.6577031617","139.696053494","コンビニエンスストア"
"138900107124781850","03-5738-2702","ファミリーマート／渋谷ＮＨＫ前店","13","６－４","150-0047","代々木公園駅,代々木八幡駅","東京都渋谷区神山町","東京都渋谷区神山町６－４","13113","渋谷区","35.6646773808","139.6940533389","コンビニエンスストア"
"137630759041031440","03-3320-9806","セブン‐イレブン／渋谷オペラ通り店","13","５３－１１－１Ｆ","151-0071","初台駅,西新宿五丁目駅","東京都渋谷区本町１丁目","東京都渋谷区本町１丁目５３－１１－１Ｆ","13113","渋谷区","35.6829142614","139.6843913016","コンビニエンスストア"
"137991413100000899","03-3461-8805","ローソン／渋谷鴬谷町店","13","１５－９－１０１","150-0032","渋谷駅,代官山駅","東京都渋谷区鶯谷町","東京都渋谷区鶯谷町１５－９－１０１","13113","渋谷区","35.6541706183","139.7005612823","コンビニエンスストア"
"137581045106140600","03-3796-5335","ミニストップ千駄ヶ谷３丁目店","13","１６－５","151-0051","北参道駅,原宿駅","東京都渋谷区千駄ヶ谷３丁目","東京都渋谷区千駄ヶ谷３丁目１６－５","13113","渋谷区","35.6758324114","139.7068627615","コンビニエンスストア"
"139760234159351220","03-3797-4636","ローソン／恵比寿プライムスクエア店","13","１－３９","150-0012","恵比寿駅,代官山駅","東京都渋谷区広尾１丁目","東京都渋谷区広尾１丁目１－３９","13113","渋谷区","35.6500762678","139.7126714651","コンビニエンスストア"
"138865182100000899","03-3401-1991","別所商店","13","２５－５","150-0001","北参道駅,国立競技場駅","東京都渋谷区神宮前２丁目","東京都渋谷区神宮前２丁目２５－５","13113","渋谷区","35.6742206487","139.7105785271","コンビニエンスストア"
"139161148110581880","03-5489-7607","ファミリーマート／渋谷マークシティ店","13","１２－５－４Ｆ","150-0043","神泉駅,渋谷駅","東京都渋谷区道玄坂１丁目","東京都渋谷区道玄坂１丁目１２－５－４Ｆ","13113","渋谷区","35.6575031955","139.696766444","コンビニエンスストア"
"139474719074640250","03-5784-1360","ローソン／桜丘町南店","13","１３－１２","150-0031","渋谷駅,神泉駅","東京都渋谷区桜丘町","東京都渋谷区桜丘町１３－１２","13113","渋谷区","35.655195523","139.7013831668","コンビニエンスストア"
"520000077963160001","03-5468-9202","ファミリーマート／神宮前店","13","１７－１０－１Ｆ","150-0001","明治神宮前〈原宿〉駅,原宿駅","東京都渋谷区神宮前６丁目","東京都渋谷区神宮前６丁目１７－１０－１Ｆ","13113","渋谷区","35.665299477","139.7033715364","コンビニエンスストア"
"130485235142941560","03-3400-0326","阿木酒店","13","２７－８－１０１","150-0011","渋谷駅,代官山駅","東京都渋谷区東１丁目","東京都渋谷区東１丁目２７－８－１０１","13113","渋谷区","35.6541817351","139.7073187205","コンビニエンスストア"
"130641939008651590","03-3796-9480","ミニストップ神宮前１丁目店","13","８－８","150-0001","明治神宮前〈原宿〉駅,原宿駅","東京都渋谷区神宮前１丁目","東京都渋谷区神宮前１丁目８－８","13113","渋谷区","35.6699740261","139.706179088","コンビニエンスストア"
"139732545156850500","03-5464-7576","ファミリーマート／渋谷ガーデンフロント店","13","２６－３","150-0002","渋谷駅,代官山駅","東京都渋谷区渋谷３丁目","東京都渋谷区渋谷３丁目２６－３","13113","渋谷区","35.6549176172","139.705074873","コンビニエンスストア"
"135686786100000899","03-5469-9975","セブン‐イレブン／渋谷東３丁目店","13","１５－４","150-0011","恵比寿駅,代官山駅","東京都渋谷区東３丁目","東京都渋谷区東３丁目１５－４","13113","渋谷区","35.6508371247","139.7091407232","コンビニエンスストア"
"138454923122751370","03-5452-2681","ファミリーマート／上原三丁目店","13","６－６","151-0064","代々木上原駅,東北沢駅","東京都渋谷区上原３丁目","東京都渋谷区上原３丁目６－６","13113","渋谷区","35.6678487823","139.6792064259","コンビニエンスストア"
"520000495780860001","03-3780-0955","セブン‐イレブン／渋谷神泉町店","13","１０－１５－１Ｆ","150-0045","神泉駅,渋谷駅","東京都渋谷区神泉町","東京都渋谷区神泉町１０－１５－１Ｆ","13113","渋谷区","35.6556343255","139.6927618626","コンビニエンスストア"
"137092216175450700","03-3402-3963","ローソン／北参道駅前店","13","３－１","151-0051","北参道駅,代々木駅","東京都渋谷区千駄ヶ谷４丁目","東京都渋谷区千駄ヶ谷４丁目３－１","13113","渋谷区","35.6793679919","139.704498795","コンビニエンスストア"
"520000271467040001","03-5489-1553","セブン‐イレブン／代官山鎗ヶ崎","13","３４－１７","150-0021","代官山駅,中目黒駅","東京都渋谷区恵比寿西１丁目","東京都渋谷区恵比寿西１丁目３４－１７","13113","渋谷区","35.6470484133","139.7024644522","コンビニエンスストア"
"133790516114381190","03-5778-9604","ファミリーマート／神宮前五丁目南店","13","１－９－１Ｆ","150-0001","表参道駅,明治神宮前〈原宿〉駅","東京都渋谷区神宮前５丁目","東京都渋谷区神宮前５丁目１－９－１Ｆ","13113","渋谷区","35.6654215766","139.7098179954","コンビニエンスストア"
"136473507158280010","03-5413-5173","ファミリーマート／原宿駅東店","13","１３－１７－２－Ｂ１Ｆ","150-0001","明治神宮前〈原宿〉駅,原宿駅","東京都渋谷区神宮前１丁目","東京都渋谷区神宮前１丁目１３－１７－２－Ｂ１Ｆ","13113","渋谷区","35.6696550125","139.7034493294","コンビニエンスストア"
"520000239537800001","03-5784-3605","ファミリーマート／パンゲアストア渋谷店","13","１５－１－１０Ｆ","150-0042","渋谷駅,神泉駅","東京都渋谷区宇田川町","東京都渋谷区宇田川町１５－１－１０Ｆ","13113","渋谷区","35.6620387488","139.6989640526","コンビニエンスストア"
"134070341125940970","03-3460-0266","セブン‐イレブン／渋谷宇田川町北店","13","３７－１１","150-0042","神泉駅,渋谷駅","東京都渋谷区宇田川町","東京都渋谷区宇田川町３７－１１","13113","渋谷区","35.6622386675","139.6955333283","コンビニエンスストア"
"137920737199170580","03-3401-9711","セブン‐イレブン／北参道駅前店","13","３３－６","151-0051","北参道駅,千駄ケ谷駅","東京都渋谷区千駄ヶ谷３丁目","東京都渋谷区千駄ヶ谷３丁目３３－６","13113","渋谷区","35.67727925","139.7064817265","コンビニエンスストア"
"138343121182370310","03-3461-2455","セブン‐イレブン／渋谷道玄坂店","13","１６－４","150-0043","神泉駅,渋谷駅","東京都渋谷区道玄坂２丁目","東京都渋谷区道玄坂２丁目１６－４","13113","渋谷区","35.6587450657","139.6969393724","コンビニエンスストア"
"131392056101060440","03-5456-8301","ファミリーマート／スバル桜丘２４６店","13","３１－１５","150-0031","渋谷駅,神泉駅","東京都渋谷区桜丘町","東京都渋谷区桜丘町３１－１５","13113","渋谷区","35.6561313665","139.6981503922","コンビニエンスストア"
"133680945179150320","03-3791-7799","セブン‐イレブン／渋谷恵比寿南３丁目店","13","２－１７","150-0022","代官山駅,恵比寿駅","東京都渋谷区恵比寿南３丁目","東京都渋谷区恵比寿南３丁目２－１７","13113","渋谷区","35.6461485564","139.705144271","コンビニエンスストア"
"135251325142061230","03-3479-2633","セブン‐イレブン／渋谷千駄ヶ谷１丁目店","13","２０－１","151-0051","千駄ケ谷駅,国立競技場駅","東京都渋谷区千駄ヶ谷１丁目","東京都渋谷区千駄ヶ谷１丁目２０－１","13113","渋谷区","35.6794620887","139.7106142828","コンビニエンスストア"
"138034351135881360","03-5798-3331","ファミリーマート／恵比寿一丁目東店","13","２５－６－１Ｆ","150-0013","恵比寿駅,広尾駅","東京都渋谷区恵比寿１丁目","東京都渋谷区恵比寿１丁目２５－６－１Ｆ","13113","渋谷区","35.6470406598","139.7165292844","コンビニエンスストア"
"131492586100000899","03-5454-1168","セブン‐イレブン／代々木上原駅前店","13","７－３","151-0066","代々木上原駅,代々木八幡駅","東京都渋谷区西原３丁目","東京都渋谷区西原３丁目７－３","13113","渋谷区","35.6700205835","139.6811261665","コンビニエンスストア"
"137871443130160150","03-5459-3171","ファミリーマート／渋谷１０９前店","13","２６－４","150-0042","渋谷駅,神泉駅","東京都渋谷区宇田川町","東京都渋谷区宇田川町２６－４","13113","渋谷区","35.6599449733","139.6989971463","コンビニエンスストア"
"130849462100000899","03-3377-2388","サンスマイル","13","５８－１４","151-0073","笹塚駅,代田橋駅","東京都渋谷区笹塚１丁目","東京都渋谷区笹塚１丁目５８－１４","13113","渋谷区","35.6733069686","139.6660462675","コンビニエンスストア"
"136567462100000899","03-3377-0139","セブン‐イレブン／渋谷本町２丁目店","13","１２－３","151-0071","初台駅,西新宿五丁目駅","東京都渋谷区本町２丁目","東京都渋谷区本町２丁目１２－３","13113","渋谷区","35.6832191787","139.6815255256","コンビニエンスストア"
"138541711194260090","03-3461-3855","ローソン／渋谷道玄坂上店","13","１９－１","150-0044","神泉駅,渋谷駅","東京都渋谷区円山町","東京都渋谷区円山町１９－１","13113","渋谷区","35.6565312698","139.69506463","コンビニエンスストア"
"131415434103170510","03-5428-6270","ファミリーマート／代官山駅前店","13","３５－１７","150-0021","代官山駅,恵比寿駅","東京都渋谷区恵比寿西１丁目","東京都渋谷区恵比寿西１丁目３５－１７","13113","渋谷区","35.6477043511","139.7029163844","コンビニエンスストア"
"132435036191270510","03-6418-5199","ファミリーマート／渋谷キャットストリート店","13","２２－１０","150-0002","渋谷駅,明治神宮前〈原宿〉駅","東京都渋谷区渋谷１丁目","東京都渋谷区渋谷１丁目２２－１０","13113","渋谷区","35.6631746928","139.7027106891","コンビニエンスストア"
"130368232100000899","03-3320-9636","ローソン／渋谷本町一丁目店","13","２１－１","151-0071","幡ヶ谷駅,初台駅","東京都渋谷区本町１丁目","東京都渋谷区本町１丁目２１－１","13113","渋谷区","35.678347669","139.6797648961","コンビニエンスストア"
"137363338112960990","03-3461-1127","セブン‐イレブン／渋谷桜丘東店","13","４－１４","150-0031","渋谷駅,代官山駅","東京都渋谷区桜丘町","東京都渋谷区桜丘町４－１４","13113","渋谷区","35.6544786488","139.7041939664","コンビニエンスストア"
"139353739070071310","03-3797-3671","セブン‐イレブン／渋谷３丁目明治通り店","13","１３－５－１Ｆ","150-0002","渋谷駅,代官山駅","東京都渋谷区渋谷３丁目","東京都渋谷区渋谷３丁目１３－５－１Ｆ","13113","渋谷区","35.655778548","139.7063827248","コンビニエンスストア"
"520000522106840001","03-3464-5303","セブン‐イレブン／渋谷中央街店","13","３－３－１Ｆ","150-0043","渋谷駅,神泉駅","東京都渋谷区道玄坂１丁目","東京都渋谷区道玄坂１丁目３－３－１Ｆ","13113","渋谷区","35.6580811918","139.7000891414","コンビニエンスストア"
"139377323100000899","03-3478-7260","ローソン／千駄ヶ谷一丁目店","13","２０－６","151-0051","千駄ケ谷駅,国立競技場駅","東京都渋谷区千駄ヶ谷１丁目","東京都渋谷区千駄ヶ谷１丁目２０－６","13113","渋谷区","35.6794900826","139.7104342964","コンビニエンスストア"
"520000060284440001","03-5302-6711","ファミリーマート／渋谷笹塚二丁目西店","13","２５－６－２－１Ｆ","151-0073","代田橋駅,笹塚駅","東京都渋谷区笹塚２丁目","東京都渋谷区笹塚２丁目２５－６－２－１Ｆ","13113","渋谷区","35.6733929024","139.6627825346","コンビニエンスストア"
"130485626143561290","03-5728-2341","ファミリーマート／代官山店","13","１７－９","150-0033","代官山駅,中目黒駅","東京都渋谷区猿楽町","東京都渋谷区猿楽町１７－９","13113","渋谷区","35.6491151366","139.6992756218","コンビニエンスストア"
"520000552313720001","03-5728-1400","ファミリーマート／渋谷円山町店","13","６－３","150-0044","神泉駅,渋谷駅","東京都渋谷区円山町","東京都渋谷区円山町６－３","13113","渋谷区","35.6573391853","139.6951755836","コンビニエンスストア"
"136140831144440950","03-3320-3051","セブン‐イレブン／代々木参宮橋店","13","１０－８","151-0053","参宮橋駅,初台駅","東京都渋谷区代々木４丁目","東京都渋谷区代々木４丁目１０－８","13113","渋谷区","35.6784338809","139.692421841","コンビニエンスストア"
"137452401184661800","03-5350-6371","セブン‐イレブン／新宿駅西店","13","１０－１","151-0053","新宿駅,新線新宿駅","東京都渋谷区代々木２丁目","東京都渋谷区代々木２丁目１０－１","13113","渋谷区","35.6879639624","139.6981929229","コンビニエンスストア"
"132513349048661090","03-3409-3851","ＪＰローソン渋谷郵便局店","13","１２－１３","150-0002","渋谷駅,明治神宮前〈原宿〉駅","東京都渋谷区渋谷１丁目","東京都渋谷区渋谷１丁目１２－１３","13113","渋谷区","35.6602560288","139.70407771","コンビニエンスストア"
"132165546105570910","03-5354-3166","ファミリーマート／笹塚三丁目北店","13","５８－２２－Ａ","151-0073","笹塚駅,幡ヶ谷駅","東京都渋谷区笹塚３丁目","東京都渋谷区笹塚３丁目５８－２２－Ａ","13113","渋谷区","35.6778864835","139.6663210338","コンビニエンスストア"
"138952055128251120","03-3378-7050","ローソン／初台一丁目店","13","４７－１","151-0061","初台駅,参宮橋駅","東京都渋谷区初台１丁目","東京都渋谷区初台１丁目４７－１","13113","渋谷区","35.6817694448","139.6878800646","コンビニエンスストア"
"139463205100000899","03-3780-5616","セブン‐イレブン／代官山駅東店","13","３１－１６","150-0021","代官山駅,恵比寿駅","東京都渋谷区恵比寿西１丁目","東京都渋谷区恵比寿西１丁目３１－１６","13113","渋谷区","35.6480543492","139.7049531991","コンビニエンスストア"
"136831208175041310","03-5350-4388","セブン‐イレブン渋谷代々木１丁目南店","13","３０－１","151-0053","代々木駅,南新宿駅","東京都渋谷区代々木１丁目","東京都渋谷区代々木１丁目３０－１","13113","渋谷区","35.6822146402","139.7017928886","コンビニエンスストア"
"135419376100000899","03-5371-3211","セブン‐イレブン／渋谷本町４丁目店","13","１９－４","151-0071","西新宿五丁目駅,中野新橋駅","東京都渋谷区本町４丁目","東京都渋谷区本町４丁目１９－４","13113","渋谷区","35.6882636084","139.6797664394","コンビニエンスストア"
"136113916122580860","03-5411-1882","セブン‐イレブン／原宿表参道店","13","２－１２","150-0001","表参道駅,明治神宮前〈原宿〉駅","東京都渋谷区神宮前４丁目","東京都渋谷区神宮前４丁目２－１２","13113","渋谷区","35.6663694959","139.711006853","コンビニエンスストア"
"136165400164751020","03-3447-8038","セブン‐イレブン／渋谷広尾５丁目店","13","８－１８","150-0012","広尾駅,恵比寿駅","東京都渋谷区広尾５丁目","東京都渋谷区広尾５丁目８－１８","13113","渋谷区","35.6483485952","139.7208378664","コンビニエンスストア"
"520000558470470001","03-3225-4717","デイリーヤマザキ／バスタ新宿店","13","２４－５５－４Ｆ","151-0051","新宿駅,新線新宿駅","東京都渋谷区千駄ヶ谷５丁目","東京都渋谷区千駄ヶ谷５丁目２４－５５－４Ｆ","13113","渋谷区","35.6887529326","139.701317627","コンビニエンスストア"
"132060256162480080","03-3409-8297","セブン‐イレブン／渋谷２丁目中央店","13","１－１","150-0002","渋谷駅,表参道駅","東京都渋谷区渋谷２丁目","東京都渋谷区渋谷２丁目１－１","13113","渋谷区","35.6611920006","139.7081933251","コンビニエンスストア"
"139344506183660450","03-5302-1176","ファミリーマート／代々木二丁目北店","13","２０－１７","151-0053","新宿駅,新線新宿駅","東京都渋谷区代々木２丁目","東京都渋谷区代々木２丁目２０－１７","13113","渋谷区","35.6866780809","139.6971040725","コンビニエンスストア"
"520000041525460001","03-3409-1577","セブン‐イレブン渋谷駅東口店","13","１９－１","150-0002","渋谷駅,神泉駅","東京都渋谷区渋谷３丁目","東京都渋谷区渋谷３丁目１９－１","13113","渋谷区","35.6576532838","139.7027359413","コンビニエンスストア"
"520000094172740001","03-5413-7654","ファミリーマート／北参道駅前店","13","３９－１","151-0051","北参道駅,千駄ケ谷駅","東京都渋谷区千駄ヶ谷３丁目","東京都渋谷区千駄ヶ谷３丁目３９－１","13113","渋谷区","35.6779761688","139.7061037258","コンビニエンスストア"
"520000193572060001","03-6427-5776","ＬＡＷＳＯＮプラストークス（ｔｏｋｓ）／渋谷スクランブルスクエア店","13","２４－１２－１７Ｆ","150-0002","渋谷駅,神泉駅","東京都渋谷区渋谷２丁目","東京都渋谷区渋谷２丁目２４－１２－１７Ｆ","13113","渋谷区","35.6584811816","139.701954968","コンビニエンスストア"
"135017182100000899","03-3401-3676","デイリーヤマザキ／神宮前店","13","４２－１６","150-0001","外苑前駅,表参道駅","東京都渋谷区神宮前３丁目","東京都渋谷区神宮前３丁目４２－１６","13113","渋谷区","35.6717709738","139.7141923398","コンビニエンスストア"
"138773436139180200","03-5420-7717","セブン‐イレブン／渋谷恵比寿１丁目東店","13","３５－６","150-0013","恵比寿駅,広尾駅","東京都渋谷区恵比寿１丁目","東京都渋谷区恵比寿１丁目３５－６","13113","渋谷区","35.6457018007","139.7163963571","コンビニエンスストア"
"130511651164230970","03-3462-5556","コミュニティ・ストア渋谷まつもと店","13","１０－１５","150-0044","神泉駅,渋谷駅","東京都渋谷区円山町","東京都渋谷区円山町１０－１５","13113","渋谷区","35.659258965","139.6943165666","コンビニエンスストア"
"138461357175971560","03-5738-2720","ファミリーマート／渋谷神山町店","13","７－１３","150-0047","代々木公園駅,代々木八幡駅","東京都渋谷区神山町","東京都渋谷区神山町７－１３","13113","渋谷区","35.6644583945","139.6934943954","コンビニエンスストア"
"139284707178060400","03-5302-4566","ファミリーマート／渋谷本町店","13","２－２","151-0071","初台駅,西新宿五丁目駅","東京都渋谷区本町２丁目","東京都渋谷区本町２丁目２－２","13113","渋谷区","35.6837861782","139.6849662137","コンビニエンスストア"
"133880720125060500","03-5475-1706","ファミリーマート／恵比寿一丁目店","13","２４－１６","150-0013","恵比寿駅,広尾駅","東京都渋谷区恵比寿１丁目","東京都渋谷区恵比寿１丁目２４－１６","13113","渋谷区","35.6469716414","139.7150494105","コンビニエンスストア"
"138088313100000899","03-3461-5332","ローソン／道玄坂二丁目店","13","２０－２６－１Ｆ","150-0043","神泉駅,渋谷駅","東京都渋谷区道玄坂２丁目","東京都渋谷区道玄坂２丁目２０－２６－１Ｆ","13113","渋谷区","35.6593060035","139.6968113572","コンビニエンスストア"
"139171537198441380","03-3449-2185","ローソンストア１００渋谷恵比寿二丁目店","13","１６－１","150-0013","広尾駅,恵比寿駅","東京都渋谷区恵比寿２丁目","東京都渋谷区恵比寿２丁目１６－１","13113","渋谷区","35.6472656615","139.7180021518","コンビニエンスストア"
"139814921134550710","03-3770-6997","セブン‐イレブン／渋谷代官山店","13","１４－２３","150-0034","代官山駅,恵比寿駅","東京都渋谷区代官山町","東京都渋谷区代官山町１４－２３","13113","渋谷区","35.6505370553","139.7033282198","コンビニエンスストア"
"132020753194160760","03-5459-3140","ファミリーマート／渋谷消防署南店","13","１２－１０","150-0041","渋谷駅,明治神宮前〈原宿〉駅","東京都渋谷区神南１丁目","東京都渋谷区神南１丁目１２－１０","13113","渋谷区","35.6634416337","139.7009638219","コンビニエンスストア"
"520000540642070001","03-3469-7576","ローソン／富ヶ谷一丁目店","13","６－９－１Ｆ","151-0063","代々木公園駅,代々木八幡駅","東京都渋谷区富ヶ谷１丁目","東京都渋谷区富ヶ谷１丁目６－９－１Ｆ","13113","渋谷区","35.6690738279","139.6893225294","コンビニエンスストア"
"132593456125640540","03-5784-1917","ファミリーマート／道玄坂二丁目店","13","６－１５","150-0043","渋谷駅,神泉駅","東京都渋谷区道玄坂２丁目","東京都渋谷区道玄坂２丁目６－１５","13113","渋谷区","35.6589750686","139.698514231","コンビニエンスストア"
"133773531120270160","03-5354-7505","ファミリーマート／南新宿駅前店","13","２９－１４","151-0053","南新宿駅,代々木駅","東京都渋谷区代々木２丁目","東京都渋谷区代々木２丁目２９－１４","13113","渋谷区","35.6843063603","139.6985790592","コンビニエンスストア"
"136123131137160180","03-3444-0311","セブン‐イレブン／恵比寿駅東口店","13","７－９","150-0013","恵比寿駅,代官山駅","東京都渋谷区恵比寿１丁目","東京都渋谷区恵比寿１丁目７－９","13113","渋谷区","35.6479434596","139.7105967356","コンビニエンスストア"
"133253759006241640","03-5784-0806","ナチュラルローソン渋谷神泉町店","13","１０－９","150-0045","神泉駅,渋谷駅","東京都渋谷区神泉町","東京都渋谷区神泉町１０－９","13113","渋谷区","35.6550473902","139.6928698806","コンビニエンスストア"
"133662528155140060","03-5423-1926","ミニストップ広尾１丁目店","13","１４－１５","150-0012","恵比寿駅,広尾駅","東京都渋谷区広尾１丁目","東京都渋谷区広尾１丁目１４－１５","13113","渋谷区","35.6480685197","139.7148023805","コンビニエンスストア"
"134863310173330050","03-3379-2929","セブン‐イレブン／渋谷代々木２丁目店","13","２３－１","151-0053","南新宿駅,新宿駅","東京都渋谷区代々木２丁目","東京都渋谷区代々木２丁目２３－１","13113","渋谷区","35.6854172285","139.6978320701","コンビニエンスストア"
"136673125132571500","03-5778-9559","ファミリーマート／渋谷東二丁目店","13","１７－１０","150-0011","恵比寿駅,代官山駅","東京都渋谷区東２丁目","東京都渋谷区東２丁目１７－１０","13113","渋谷区","35.6524649526","139.7092546388","コンビニエンスストア"
"137445400104371740","03-3409-6996","ローソン／渋谷東１丁目店","13","３－１０","150-0011","渋谷駅,表参道駅","東京都渋谷区東１丁目","東京都渋谷区東１丁目３－１０","13113","渋谷区","35.6572974175","139.708210503","コンビニエンスストア"
"137978313100000899","03-3461-5324","有限会社小島商店","13","１－１９","150-0044","神泉駅,渋谷駅","東京都渋谷区円山町","東京都渋谷区円山町１－１９","13113","渋谷区","35.6597999242","139.6952944605","コンビニエンスストア"
"138052001136730800","03-3400-5251","セブン‐イレブン／渋谷東４丁目店","13","８－１","150-0011","広尾駅,恵比寿駅","東京都渋谷区東４丁目","東京都渋谷区東４丁目８－１","13113","渋谷区","35.6555456991","139.7136101352","コンビニエンスストア"
"139600539001330720","03-3479-0302","ミニストップ千駄ヶ谷駅前店","13","３０－８","151-0051","千駄ケ谷駅,国立競技場駅","東京都渋谷区千駄ヶ谷１丁目","東京都渋谷区千駄ヶ谷１丁目３０－８","13113","渋谷区","35.680969918","139.710076258","コンビニエンスストア"
"139583121124370760","03-6407-0685","ローソン／元代々木町店","13","３３－８","151-0062","代々木八幡駅,代々木公園駅","東京都渋谷区元代々木町","東京都渋谷区元代々木町３３－８","13113","渋谷区","35.6716185176","139.6871365937","コンビニエンスストア"
"136736662100000899","03-3379-8123","ファミリーマート／代々木一丁目店","13","５７－２","151-0053","代々木駅,南新宿駅","東京都渋谷区代々木１丁目","東京都渋谷区代々木１丁目５７－２","13113","渋谷区","35.6851173246","139.7014987794","コンビニエンスストア"
"130014515195480730","03-5465-0130","ファミリーマート／渋谷笹塚一丁目店","13","９－１０－１Ｆ","151-0073","笹塚駅,幡ヶ谷駅","東京都渋谷区笹塚１丁目","東京都渋谷区笹塚１丁目９－１０－１Ｆ","13113","渋谷区","35.6735870081","139.6700239243","コンビニエンスストア"
"131162114159360700","03-5457-1228","ファミリーマート／道玄坂センタービル店","13","２９－８","150-0043","渋谷駅,神泉駅","東京都渋谷区道玄坂２丁目","東京都渋谷区道玄坂２丁目２９－８","13113","渋谷区","35.6596449949","139.6983972099","コンビニエンスストア"
"133744355104260240","03-6408-5041","ファミリーマート／恵比寿四丁目店","13","９－１１","150-0013","恵比寿駅,広尾駅","東京都渋谷区恵比寿４丁目","東京都渋谷区恵比寿４丁目９－１１","13113","渋谷区","35.6457297609","139.7142855311","コンビニエンスストア"
"520000517677160001","03-5474-2273","セブン‐イレブン／渋谷千駄ヶ谷３丁目店","13","２３－１０－１Ｆ","151-0051","北参道駅,千駄ケ谷駅","東京都渋谷区千駄ヶ谷３丁目","東京都渋谷区千駄ヶ谷３丁目２３－１０－１Ｆ","13113","渋谷区","35.676634349","139.7082036132","コンビニエンスストア"
"136453819042360240","03-6418-5785","ファミリーマート／渋谷クロスタワー店","13","１５－１","150-0002","渋谷駅,表参道駅","東京都渋谷区渋谷２丁目","東京都渋谷区渋谷２丁目１５－１","13113","渋谷区","35.6587642088","139.7052466816","コンビニエンスストア"
"139132405101640600","03-5728-5636","ナチュラルローソン渋谷代官山店","13","８－９","150-0033","代官山駅,恵比寿駅","東京都渋谷区猿楽町","東京都渋谷区猿楽町８－９","13113","渋谷区","35.651536949","139.7033691703","コンビニエンスストア"
"132224755126360620","03-3478-8777","セブン‐イレブン／渋谷神宮前２丁目西店","13","２５－５－１Ｆ","150-0001","北参道駅,国立競技場駅","東京都渋谷区神宮前２丁目","東京都渋谷区神宮前２丁目２５－５－１Ｆ","13113","渋谷区","35.6742206487","139.7105785271","コンビニエンスストア"
"134661745155161770","03-6408-5010","ファミリーマート／恵比寿二丁目店","13","２９－２","150-0013","広尾駅,白金台駅","東京都渋谷区恵比寿２丁目","東京都渋谷区恵比寿２丁目２９－２","13113","渋谷区","35.6450219659","139.721687949","コンビニエンスストア"
"136031607185060880","03-5358-2127","ファミリーマート／新宿駅南店","13","７－５","151-0053","新宿駅,新線新宿駅","東京都渋谷区代々木２丁目","東京都渋谷区代々木２丁目７－５","13113","渋谷区","35.6877530077","139.6994988241","コンビニエンスストア"
"136045524146880360","03-5333-0233","ファミリーマート／幡ヶ谷三丁目店","13","１９－２","151-0072","幡ヶ谷駅,笹塚駅","東京都渋谷区幡ヶ谷３丁目","東京都渋谷区幡ヶ谷３丁目１９－２","13113","渋谷区","35.6793944744","139.6750342408","コンビニエンスストア"
"136698376100000899","03-5371-1891","セブン‐イレブン／渋谷笹塚駅前店","13","５７－２２","151-0073","笹塚駅,代田橋駅","東京都渋谷区笹塚１丁目","東京都渋谷区笹塚１丁目５７－２２","13113","渋谷区","35.6737699321","139.6667961839","コンビニエンスストア"
"520000242692220001","03-6276-8914","ローソン／クオール代々木駅前店","13","３５－１５","151-0053","代々木駅,南新宿駅","東京都渋谷区代々木１丁目","東京都渋谷区代々木１丁目３５－１５","13113","渋谷区","35.6836614872","139.7018958135","コンビニエンスストア"
"136970410117860840","03-3464-0720","セブン‐イレブン／渋谷神南１丁目店","13","１１－５","150-0041","渋谷駅,明治神宮前〈原宿〉駅","東京都渋谷区神南１丁目","東京都渋谷区神南１丁目１１－５","13113","渋谷区","35.6625607298","139.7010718535","コンビニエンスストア"
"138014335181550790","03-3409-7028","セブン‐イレブン／渋谷区渋谷２の南店","13","１２－１２","150-0002","渋谷駅,表参道駅","東京都渋谷区渋谷２丁目","東京都渋谷区渋谷２丁目１２－１２","13113","渋谷区","35.6586722728","139.7083494282","コンビニエンスストア"
"134168015100000899","03-3794-1526","ローソン／恵比寿店","13","２－２","150-0022","恵比寿駅,代官山駅","東京都渋谷区恵比寿南２丁目","東京都渋谷区恵比寿南２丁目２－２","13113","渋谷区","35.6457986372","139.7076300807","コンビニエンスストア"
"131932613100000899","03-3465-6155","セブン‐イレブン／渋谷代々木公園店","13","１９－４","151-0063","代々木公園駅,代々木八幡駅","東京都渋谷区富ヶ谷１丁目","東京都渋谷区富ヶ谷１丁目１９－４","13113","渋谷区","35.665944211","139.6920894437","コンビニエンスストア"
"134811503100000899","03-3441-5825","ローソン／広尾一丁目店","13","１６－３－１０１","150-0012","恵比寿駅,代官山駅","東京都渋谷区広尾１丁目","東京都渋谷区広尾１丁目１６－３－１０１","13113","渋谷区","35.6486074025","139.7113936388","コンビニエンスストア"
"132473224106840450","03-5333-3831","ファミリーマート／山野学苑店","13","５３－１","151-0053","南新宿駅,代々木駅","東京都渋谷区代々木１丁目","東京都渋谷区代々木１丁目５３－１","13113","渋谷区","35.6841473978","139.6997519691","コンビニエンスストア"
"133022625191660780","03-5302-2370","ファミリーマート／代々木駅西店","13","３０－３","151-0053","代々木駅,南新宿駅","東京都渋谷区代々木１丁目","東京都渋谷区代々木１丁目３０－３","13113","渋谷区","35.6819726664","139.7018128981","コンビニエンスストア"
"138114253152240600","03-5333-3240","ファミリーマート／初台駅北口店","13","４－１５","151-0071","初台駅,参宮橋駅","東京都渋谷区本町１丁目","東京都渋谷区本町１丁目４－１５","13113","渋谷区","35.6815334274","139.6854362784","コンビニエンスストア"
"133001645166470280","03-3464-1378","セブン‐イレブン／渋谷駅西店","13","３－１１","150-0043","渋谷駅,神泉駅","東京都渋谷区道玄坂１丁目","東京都渋谷区道玄坂１丁目３－１１","13113","渋谷区","35.6582671636","139.6996141723","コンビニエンスストア"
"131825813146261750","03-3478-3051","セブン‐イレブン／原宿竹下通り店","13","６－１２","150-0001","原宿駅,明治神宮前〈原宿〉駅","東京都渋谷区神宮前１丁目","東京都渋谷区神宮前１丁目６－１２","13113","渋谷区","35.6711268858","139.7052101154","コンビニエンスストア"
"132993024142771610","03-5784-0361","ファミリーマート／渋谷東急本店前店","13","３４－５","150-0042","渋谷駅,神泉駅","東京都渋谷区宇田川町","東京都渋谷区宇田川町３４－５","13113","渋谷区","35.6611168041","139.6964863008","コンビニエンスストア"
"137264813144331310","03-3463-3358","ミニストップ道玄坂２丁目店","13","６－１１","150-0043","渋谷駅,神泉駅","東京都渋谷区道玄坂２丁目","東京都渋谷区道玄坂２丁目６－１１","13113","渋谷区","35.6587640912","139.698511241","コンビニエンスストア"
"130989423100000899","03-3481-8077","セブン‐イレブン／渋谷笹塚東店","13","１１－１１","151-0072","笹塚駅,幡ヶ谷駅","東京都渋谷区幡ヶ谷１丁目","東京都渋谷区幡ヶ谷１丁目１１－１１","13113","渋谷区","35.6742199717","139.6718177462","コンビニエンスストア"
"133896954100000899","03-3715-9689","ローソン／恵比寿南一丁目店","13","７－８","150-0022","恵比寿駅,代官山駅","東京都渋谷区恵比寿南１丁目","東京都渋谷区恵比寿南１丁目７－８","13113","渋谷区","35.6461186416","139.7098408824","コンビニエンスストア"
"138008413100000899","03-3463-1557","セブン‐イレブン／渋谷セルリアンタワー店","13","２６－１","150-0031","渋谷駅,神泉駅","東京都渋谷区桜丘町","東京都渋谷区桜丘町２６－１","13113","渋谷区","35.6564453554","139.6994412705","コンビニエンスストア"
"138935182100000899","03-3401-1637","セブン‐イレブン／神宮前店","13","８－１","150-0001","表参道駅,明治神宮前〈原宿〉駅","東京都渋谷区神宮前４丁目","東京都渋谷区神宮前４丁目８－１","13113","渋谷区","35.668249309","139.7118126996","コンビニエンスストア"
"520000085580400001","03-6427-6189","ローソン／神宮前六丁目店","13","２８－３","150-0001","明治神宮前〈原宿〉駅,原宿駅","東京都渋谷区神宮前６丁目","東京都渋谷区神宮前６丁目２８－３","13113","渋谷区","35.6673852687","139.7042153703","コンビニエンスストア"
"132950741128060670","03-5365-9321","ファミリーマート／参宮橋駅前店","13","２－３","151-0053","参宮橋駅,南新宿駅","東京都渋谷区代々木４丁目","東京都渋谷区代々木４丁目２－３","13113","渋谷区","35.6789508442","139.6934887286","コンビニエンスストア"
"510000000000020503","03-6418-7741","ローソン渋谷三丁目明治通り店","13","１５－３","150-0002","渋谷駅,代官山駅","東京都渋谷区渋谷３丁目","東京都渋谷区渋谷３丁目１５－３","13113","渋谷区","35.6558005332","139.705668783","コンビニエンスストア"
"131377586100000899","03-5458-3970","デイリーヤマザキ／神泉店","13","４－６","150-0045","神泉駅,渋谷駅","東京都渋谷区神泉町","東京都渋谷区神泉町４－６","13113","渋谷区","35.6572201707","139.693611719","コンビニエンスストア"
"135654354165250150","03-6418-6095","ファミリーマート／渋谷一丁目店","13","２４－６","150-0002","渋谷駅,神泉駅","東京都渋谷区渋谷１丁目","東京都渋谷区渋谷１丁目２４－６","13113","渋谷区","35.6606359523","139.702024863","コンビニエンスストア"
"136361033139181510","03-5351-2577","セブン‐イレブン／西新宿甲州街道店","13","１３－４","151-0053","新宿駅,新線新宿駅","東京都渋谷区代々木２丁目","東京都渋谷区代々木２丁目１３－４","13113","渋谷区","35.6871500175","139.6963631123","コンビニエンスストア"
"130160121131861820","03-3447-8266","セブン‐イレブン／渋谷恵比寿１丁目店","13","１８－１３","150-0013","恵比寿駅,広尾駅","東京都渋谷区恵比寿１丁目","東京都渋谷区恵比寿１丁目１８－１３","13113","渋谷区","35.6472436079","139.7147994188","コンビニエンスストア"
"130635736141160160","03-5766-6020","ファミリーマート／神宮前五丁目店","13","２９－７","150-0001","明治神宮前〈原宿〉駅,渋谷駅","東京都渋谷区神宮前５丁目","東京都渋谷区神宮前５丁目２９－７","13113","渋谷区","35.6642025915","139.7032076005","コンビニエンスストア"
"136584533165140600","03-5333-5207","ファミリーマート／笹塚二丁目店","13","２２－５","151-0073","笹塚駅,代田橋駅","東京都渋谷区笹塚２丁目","東京都渋谷区笹塚２丁目２２－５","13113","渋谷区","35.673828875","139.663885423","コンビニエンスストア"
"138350413100000899","03-3461-7151","有限会社シンコー商事","13","２９－１３","150-0043","渋谷駅,神泉駅","東京都渋谷区道玄坂２丁目","東京都渋谷区道玄坂２丁目２９－１３","13113","渋谷区","35.6596589848","139.6979002505","コンビニエンスストア"
"132040826153831340","03-3463-9112","株式会社オリエンタルウィンド","13","２－１","150-0042","渋谷駅,明治神宮前〈原宿〉駅","東京都渋谷区宇田川町","東京都渋谷区宇田川町２－１","13113","渋谷区","35.6636665685","139.698611007","コンビニエンスストア"
"130393000134581640","03-5428-6150","ファミリーマート／恵比寿西口店","13","４－４－１Ｆ","150-0021","恵比寿駅,代官山駅","東京都渋谷区恵比寿西１丁目","東京都渋谷区恵比寿西１丁目４－４－１Ｆ","13113","渋谷区","35.6484103693","139.7082829062","コンビニエンスストア"
"520000498599820001","03-5728-7502","ファミリーマート／渋谷フィンガーアベニュー店","13","１９－３－１Ｆ","150-0041","渋谷駅,明治神宮前〈原宿〉駅","東京都渋谷区神南１丁目","東京都渋谷区神南１丁目１９－３－１Ｆ","13113","渋谷区","35.6624417252","139.7000779415","コンビニエンスストア"
"133400859075461310","03-3770-4876","セブン‐イレブン／渋谷道玄坂１丁目店","13","１０－５","150-0043","渋谷駅,神泉駅","東京都渋谷区道玄坂１丁目","東京都渋谷区道玄坂１丁目１０－５","13113","渋谷区","35.657039286","139.6991032713","コンビニエンスストア"
"131182936158671300","03-3476-1170","セブン‐イレブン／渋谷南平台町店","13","１６－２８","150-0036","神泉駅,渋谷駅","東京都渋谷区南平台町","東京都渋谷区南平台町１６－２８","13113","渋谷区","35.6548974424","139.6949397157","コンビニエンスストア"
"136461628069080020","03-3409-7417","セブン‐イレブン／恵比寿駅北店","13","２２－１４","150-0011","恵比寿駅,代官山駅","東京都渋谷区東３丁目","東京都渋谷区東３丁目２２－１４","13113","渋谷区","35.6502681772","139.708663789","コンビニエンスストア"
"138083210146160440","03-5772-5716","ファミリーマート／原宿神宮前店","13","２０－９","150-0001","明治神宮前〈原宿〉駅,原宿駅","東京都渋谷区神宮前３丁目","東京都渋谷区神宮前３丁目２０－９","13113","渋谷区","35.6698080791","139.7081989279","コンビニエンスストア"
"139625204183371380","03-3370-1536","セブン‐イレブン／代々木駅北口店","13","３６－１","151-0053","代々木駅,南新宿駅","東京都渋谷区代々木１丁目","東京都渋谷区代々木１丁目３６－１","13113","渋谷区","35.6841004305","139.7013348398","コンビニエンスストア"
"139754445173571360","03-5333-8907","ファミリーマート／新宿マインズタワー店","13","１－１","151-0053","新宿駅,新線新宿駅","東京都渋谷区代々木２丁目","東京都渋谷区代々木２丁目１－１","13113","渋谷区","35.6868780812","139.6983459602","コンビニエンスストア"
"520000309422920001","03-5784-3099","ファミリーマート／渋谷駅北店","13","２２－８","150-0041","渋谷駅,神泉駅","東京都渋谷区神南１丁目","東京都渋谷区神南１丁目２２－８","13113","渋谷区","35.6612138743","139.7010999132","コンビニエンスストア"
"133355707125460720","03-5919-0814","ファミリーマート／千駄ヶ谷鳩森店","13","１６－１０","151-0051","代々木駅,北参道駅","東京都渋谷区千駄ヶ谷５丁目","東京都渋谷区千駄ヶ谷５丁目１６－１０","13113","渋谷区","35.6824176722","139.7048706237","コンビニエンスストア"
"135893131138331000","03-5452-7041","ファミリーマート／代々木上原駅前店","13","１１－７","151-0066","代々木上原駅,代々木八幡駅","東京都渋谷区西原３丁目","東京都渋谷区西原３丁目１１－７","13113","渋谷区","35.6695736138","139.6801262701","コンビニエンスストア"
"136583943150260430","03-5738-2880","ファミリーマート／幡ヶ谷駅南店","13","３１－５","151-0066","幡ヶ谷駅,代々木上原駅","東京都渋谷区西原２丁目","東京都渋谷区西原２丁目３１－５","13113","渋谷区","35.6761118627","139.6771622152","コンビニエンスストア"
"139173507112271960","03-5794-3595","ファミリーマート／恵比寿南三丁目店","13","５－７","150-0022","代官山駅,恵比寿駅","東京都渋谷区恵比寿南３丁目","東京都渋谷区恵比寿南３丁目５－７","13113","渋谷区","35.6460015497","139.7038613843","コンビニエンスストア"
"137633023177371570","03-5468-5044","ファミリーマート／宮益坂下店","13","２０－１１","150-0002","渋谷駅,神泉駅","東京都渋谷区渋谷２丁目","東京都渋谷区渋谷２丁目２０－１１","13113","渋谷区","35.6594610938","139.7029328417","コンビニエンスストア"
"520000025780880001","03-5361-7271","ファミリーマート／代々木東口店","13","２０－１２－１Ｆ","151-0051","代々木駅,南新宿駅","東京都渋谷区千駄ヶ谷５丁目","東京都渋谷区千駄ヶ谷５丁目２０－１２－１Ｆ","13113","渋谷区","35.6833585398","139.7030517314","コンビニエンスストア"
"520000118422850001","03-3401-8801","セブン‐イレブン／代々木千駄ヶ谷４丁目店","13","３０－３－１Ｆ","151-0051","代々木駅,北参道駅","東京都渋谷区千駄ヶ谷４丁目","東京都渋谷区千駄ヶ谷４丁目３０－３－１Ｆ","13113","渋谷区","35.6815287401","139.7033147938","コンビニエンスストア"
"520000265035740001","03-3379-8810","ローソン／渋谷初台１丁目店","13","１０－７","151-0061","初台駅,参宮橋駅","東京都渋谷区初台１丁目","東京都渋谷区初台１丁目１０－７","13113","渋谷区","35.6783507927","139.6868643064","コンビニエンスストア"
"131602752181460370","03-5468-5002","ファミリーマート／青山オーバルビル店","13","５２－２","150-0001","表参道駅,渋谷駅","東京都渋谷区神宮前５丁目","東京都渋谷区神宮前５丁目５２－２","13113","渋谷区","35.6627388482","139.7089431916","コンビニエンスストア"
"131995813100000899","03-3469-0324","ローソン／笹塚駅前店","13","２８","151-0073","笹塚駅,代田橋駅","東京都渋谷区笹塚１丁目","東京都渋谷区笹塚１丁目２８","13113","渋谷区","35.6728010447","139.6673051863","コンビニエンスストア"
"134934841115580910","03-3447-7380","セブン‐イレブン／渋谷恵比寿１丁目南店","13","２２－２１－１Ｆ","150-0013","恵比寿駅,代官山駅","東京都渋谷区恵比寿１丁目","東京都渋谷区恵比寿１丁目２２－２１－１Ｆ","13113","渋谷区","35.6460967148","139.7138935468","コンビニエンスストア"
"137014333100000899","03-3499-2116","セブン‐イレブン／渋谷１丁目店","13","１１－６","150-0002","渋谷駅,明治神宮前〈原宿〉駅","東京都渋谷区渋谷１丁目","東京都渋谷区渋谷１丁目１１－６","13113","渋谷区","35.6608609718","139.7045186455","コンビニエンスストア"
"137091151132851100","03-3486-7710","セブン‐イレブン／渋谷金王坂上店","13","１０－１３","150-0002","渋谷駅,表参道駅","東京都渋谷区渋谷２丁目","東京都渋谷区渋谷２丁目１０－１３","13113","渋谷区","35.660178079","139.7064745145","コンビニエンスストア"
"520000253991000001","03-5489-7403","ファミリーマート／渋谷道玄坂プラザ通り店","13","７－１－１Ｆ","150-0043","渋谷駅,神泉駅","東京都渋谷区道玄坂１丁目","東京都渋谷区道玄坂１丁目７－１－１Ｆ","13113","渋谷区","35.6576562275","139.6995332071","コンビニエンスストア"
"132073624148660470","03-3469-1801","ＪＰローソン代々木郵便局店","13","４２－２","151-0066","幡ヶ谷駅,初台駅","東京都渋谷区西原１丁目","東京都渋谷区西原１丁目４２－２","13113","渋谷区","35.676842876","139.6823977467","コンビニエンスストア"
"136944313100000899","03-3461-0701","ミニストップ渋谷桜丘店","13","６－６","150-0031","渋谷駅,代官山駅","東京都渋谷区桜丘町","東京都渋谷区桜丘町６－６","13113","渋谷区","35.6543646415","139.7030780643","コンビニエンスストア"
"139092234177151000","03-3374-7726","スリーエフ笹塚３丁目店","13","１９－１４","151-0073","笹塚駅,幡ヶ谷駅","東京都渋谷区笹塚３丁目","東京都渋谷区笹塚３丁目１９－１４","13113","渋谷区","35.6764086488","139.6667320678","コンビニエンスストア"
"132605038170571540","03-5354-3121","ファミリーマート／幡ヶ谷駅北口店","13","１３－４","151-0072","幡ヶ谷駅,初台駅","東京都渋谷区幡ヶ谷２丁目","東京都渋谷区幡ヶ谷２丁目１３－４","13113","渋谷区","35.6776086956","139.6767621795","コンビニエンスストア"
"133181444190280910","03-3409-7715","セブン‐イレブン／渋谷並木橋店","13","３２－１２","150-0011","渋谷駅,代官山駅","東京都渋谷区東１丁目","東京都渋谷区東１丁目３２－１２","13113","渋谷区","35.6541257191","139.7060578278","コンビニエンスストア"
"133691804154360820","03-3446-2044","ローソン／恵比寿三丁目店","13","１－７","150-0013","恵比寿駅,広尾駅","東京都渋谷区恵比寿３丁目","東京都渋谷区恵比寿３丁目１－７","13113","渋谷区","35.6453658406","139.7166243537","コンビニエンスストア"
"520000214054090001","03-6427-7741","ＬＡＷＳＯＮプラストークス（ｔｏｋｓ）／渋谷スクランブルスクエア９階店","13","２４－１２－９Ｆ","150-0002","渋谷駅,神泉駅","東京都渋谷区渋谷２丁目","東京都渋谷区渋谷２丁目２４－１２－９Ｆ","13113","渋谷区","35.6584811816","139.701954968","コンビニエンスストア"
"138423751195830240","03-5464-1781","ファミリーマート／渋谷明治通り店","13","１２－２２","150-0002","渋谷駅,代官山駅","東京都渋谷区渋谷３丁目","東京都渋谷区渋谷３丁目１２－２２","13113","渋谷区","35.656367473","139.7056937549","コンビニエンスストア"
"520000160792470001","03-3408-5777","ローソン／神宮前三丁目マイセン通り店","13","３－８－１Ｆ","150-0001","表参道駅,外苑前駅","東京都渋谷区神宮前３丁目","東京都渋谷区神宮前３丁目３－８－１Ｆ","13113","渋谷区","35.6690102455","139.7128375794","コンビニエンスストア"
"131301508013580170","03-5725-5852","ファミリーマート／恵比寿駅南店","13","２０－１１－１Ｆ","150-0022","恵比寿駅,代官山駅","東京都渋谷区恵比寿南１丁目","東京都渋谷区恵比寿南１丁目２０－１１－１Ｆ","13113","渋谷区","35.6440628651","139.7100439602","コンビニエンスストア"
"138904510158671670","03-5371-0528","セブン‐イレブン／渋谷笹塚２丁目店","13","１５－１","151-0073","笹塚駅,代田橋駅","東京都渋谷区笹塚２丁目","東京都渋谷区笹塚２丁目１５－１","13113","渋谷区","35.6745318489","139.6666961572","コンビニエンスストア"
"135654815178160670","03-3461-2965","デイリーヤマザキ渋谷区神南店","13","６－１２","150-0041","渋谷駅,明治神宮前〈原宿〉駅","東京都渋谷区神南１丁目","東京都渋谷区神南１丁目６－１２","13113","渋谷区","35.6645244916","139.6994578971","コンビニエンスストア"
"136731662100000899","03-3378-9180","セブン‐イレブン／渋谷本町店","13","４４－７","151-0071","幡ヶ谷駅,中野新橋駅","東京都渋谷区本町５丁目","東京都渋谷区本町５丁目４４－７","13113","渋谷区","35.6828470907","139.6742091503","コンビニエンスストア"
"520000024169350001","03-3299-5977","セブン‐イレブン／笹塚２丁目１０号通り店","13","１０－５","151-0073","笹塚駅,幡ヶ谷駅","東京都渋谷区笹塚２丁目","東京都渋谷区笹塚２丁目１０－５","13113","渋谷区","35.6755337678","139.6681909869","コンビニエンスストア"
"132800701187141600","03-3479-3035","ミニストップ神宮前２丁目店","13","１２－２","150-0001","外苑前駅,国立競技場駅","東京都渋谷区神宮前２丁目","東京都渋谷区神宮前２丁目１２－２","13113","渋谷区","35.6741546863","139.7123283848","コンビニエンスストア"
"135713119025971840","03-5778-3090","ファミリーマート／表参道中央店","13","９－１","150-0001","明治神宮前〈原宿〉駅,原宿駅","東京都渋谷区神宮前６丁目","東京都渋谷区神宮前６丁目９－１","13113","渋谷区","35.6671583136","139.7053962827","コンビニエンスストア"
"138603111112961260","03-5354-6499","ローソンストア１００渋谷本町三丁目店","13","４８－２１","151-0071","西新宿五丁目駅,初台駅","東京都渋谷区本町３丁目","東京都渋谷区本町３丁目４８－２１","13113","渋谷区","35.6876807283","139.6830611926","コンビニエンスストア"
"520000152609700001","03-3496-4588","ローソン／渋谷ランブリングストリート店","13","２－３","150-0044","神泉駅,渋谷駅","東京都渋谷区円山町","東京都渋谷区円山町２－３","13113","渋谷区","35.6584920653","139.6953645149","コンビニエンスストア"
"520000517665700001","03-5413-3027","ファミリーマート／渋谷原宿通り店","13","２５－５－１Ｆ","150-0001","明治神宮前〈原宿〉駅,原宿駅","東京都渋谷区神宮前３丁目","東京都渋谷区神宮前３丁目２５－５－１Ｆ","13113","渋谷区","35.6714379046","139.7081878538","コンビニエンスストア"
"131225114161171060","03-5793-4977","ナチュラルローソン広尾５丁目店","13","１－２５","150-0012","広尾駅,恵比寿駅","東京都渋谷区広尾５丁目","東京都渋谷区広尾５丁目１－２５","13113","渋谷区","35.6494434657","139.720126875","コンビニエンスストア"
"133360912149360970","03-3407-1677","セブン‐イレブン／渋谷東１丁目店","13","２５－２","150-0011","渋谷駅,恵比寿駅","東京都渋谷区東１丁目","東京都渋谷区東１丁目２５－２","13113","渋谷区","35.6546597043","139.7084776023","コンビニエンスストア"
"137594904152061730","03-5456-9305","ファミリーマート／道玄坂上店","13","２８－１","150-0044","神泉駅,渋谷駅","東京都渋谷区円山町","東京都渋谷区円山町２８－１","13113","渋谷区","35.6560533154","139.6947476784","コンビニエンスストア"
"520000179988020001","03-5369-6414","ファミリーマート／千駄ヶ谷五丁目店","13","１４－１０","151-0051","代々木駅,南新宿駅","東京都渋谷区千駄ヶ谷５丁目","東京都渋谷区千駄ヶ谷５丁目１４－１０","13113","渋谷区","35.6844784393","139.7041515885","コンビニエンスストア"
"134212130135340140","03-3463-8502","セブン‐イレブン／渋谷桜丘店","13","１８－６","150-0031","渋谷駅,神泉駅","東京都渋谷区桜丘町","東京都渋谷区桜丘町１８－６","13113","渋谷区","35.6559094364","139.7007941828","コンビニエンスストア"
"520000546254650001","03-3409-8073","セブン‐イレブン／渋谷神宮前５丁目店","13","４６－３－１Ｆ","150-0001","表参道駅,明治神宮前〈原宿〉駅","東京都渋谷区神宮前５丁目","東京都渋谷区神宮前５丁目４６－３－１Ｆ","13113","渋谷区","35.6641496933","139.7087151456","コンビニエンスストア"
"137625555101160790","03-5459-3210","ローソン／渋谷区井の頭通店","13","３９－２","150-0042","渋谷駅,神泉駅","東京都渋谷区宇田川町","東京都渋谷区宇田川町３９－２","13113","渋谷区","35.6622606871","139.6967912228","コンビニエンスストア"
"139562954165371560","03-3375-1281","ミニストップ渋谷本町６丁目店","13","３５－４","151-0071","幡ヶ谷駅,初台駅","東京都渋谷区本町６丁目","東京都渋谷区本町６丁目３５－４","13113","渋谷区","35.6800644362","139.6769450512","コンビニエンスストア"
"130651124168650050","03-3485-0971","セブン‐イレブン／渋谷上原２丁目店","13","２８－３","151-0064","駒場東大前駅,代々木上原駅","東京都渋谷区上原２丁目","東京都渋谷区上原２丁目２８－３","13113","渋谷区","35.6632633318","139.682590356","コンビニエンスストア"
"520000023045180001","03-6419-9907","ファミリーマート／渋谷三丁目店","13","１７－２－１Ｆ","150-0002","渋谷駅,代官山駅","東京都渋谷区渋谷３丁目","東京都渋谷区渋谷３丁目１７－２－１Ｆ","13113","渋谷区","35.6567704053","139.7042858532","コンビニエンスストア"
"130153804168350670","03-6419-4533","ファミリーマート／宮益坂上店","13","７－５","150-0002","渋谷駅,表参道駅","東京都渋谷区渋谷１丁目","東京都渋谷区渋谷１丁目７－５","13113","渋谷区","35.6607450149","139.7062775048","コンビニエンスストア"
"138900209144880740","03-3378-5230","セブン‐イレブン／渋谷笹塚駅北店","13","５６－１０","151-0073","笹塚駅,幡ヶ谷駅","東京都渋谷区笹塚１丁目","東京都渋谷区笹塚１丁目５６－１０","13113","渋谷区","35.6743008972","139.6680460557","コンビニエンスストア"
"139523844194461900","03-3797-9778","セブン‐イレブン／渋谷３丁目六本木通り店","13","６－１","150-0002","渋谷駅,神泉駅","東京都渋谷区渋谷３丁目","東京都渋谷区渋谷３丁目６－１","13113","渋谷区","35.6578952952","139.7048717528","コンビニエンスストア"
"520000021801550001","03-5304-5156","ファミリーマート／渋谷本町三丁目店","13","４１－１１","151-0071","西新宿五丁目駅,中野新橋駅","東京都渋谷区本町３丁目","東京都渋谷区本町３丁目４１－１１","13113","渋谷区","35.6882966229","139.6807973522","コンビニエンスストア"
"131172221128540450","03-5304-7263","ナチュラルローソン代々木駅西店","13","３９－１１","151-0053","代々木駅,南新宿駅","東京都渋谷区代々木１丁目","東京都渋谷区代々木１丁目３９－１１","13113","渋谷区","35.6825335772","139.7001380114","コンビニエンスストア"
"133205905182750700","03-3791-2355","セブン‐イレブン／恵比寿アメリカ橋店","13","２５－１","150-0022","恵比寿駅,代官山駅","東京都渋谷区恵比寿南１丁目","東京都渋谷区恵比寿南１丁目２５－１","13113","渋谷区","35.642833029","139.7118998627","コンビニエンスストア"
"137255714199561330","03-3378-7011","セブン‐イレブン／渋谷本町３丁目店","13","１－１","151-0071","西新宿五丁目駅,初台駅","東京都渋谷区本町３丁目","東京都渋谷区本町３丁目１－１","13113","渋谷区","35.6865828808","139.6850660766","コンビニエンスストア"
"520000538583970001","03-5458-5152","ローソン／恵比寿西一丁目店","13","１２－１２－１Ｆ","150-0021","恵比寿駅,代官山駅","東京都渋谷区恵比寿西１丁目","東京都渋谷区恵比寿西１丁目１２－１２－１Ｆ","13113","渋谷区","35.6474124596","139.7073410304","コンビニエンスストア"
"139090721152941980","03-3468-7876","セブン‐イレブン／渋谷富ヶ谷２丁目店","13","９－１８","151-0063","代々木公園駅,代々木八幡駅","東京都渋谷区富ヶ谷２丁目","東京都渋谷区富ヶ谷２丁目９－１８","13113","渋谷区","35.6649772257","139.6870119099","コンビニエンスストア"
"139203100183870360","03-3404-1783","ローソン／神宮前１丁目店","13","４－１６","150-0001","明治神宮前〈原宿〉駅,原宿駅","東京都渋谷区神宮前１丁目","東京都渋谷区神宮前１丁目４－１６","13113","渋谷区","35.6721518192","139.7076738636","コンビニエンスストア"
"520000191290680001","03-6300-5377","ローソン／渋谷笹塚ニ丁目店","13","４－３－１Ｆ","151-0073","笹塚駅,幡ヶ谷駅","東京都渋谷区笹塚２丁目","東京都渋谷区笹塚２丁目４－３－１Ｆ","13113","渋谷区","35.6754698052","139.6699378447","コンビニエンスストア"
"130073002147171490","03-5428-3811","ローソン／恵比寿西二丁目店","13","３－１６","150-0021","恵比寿駅,代官山駅","東京都渋谷区恵比寿西２丁目","東京都渋谷区恵比寿西２丁目３－１６","13113","渋谷区","35.6505961228","139.7075578658","コンビニエンスストア"
"138702503100000899","03-3441-6741","ローソン／天現寺店","13","３９－５","150-0013","白金台駅,広尾駅","東京都渋谷区恵比寿３丁目","東京都渋谷区恵比寿３丁目３９－５","13113","渋谷区","35.6438110809","139.7208600735","コンビニエンスストア"
"138732139007970160","03-5778-3086","ファミリーマート／渋谷警察東店","13","６－３","150-0002","渋谷駅,表参道駅","東京都渋谷区渋谷３丁目","東京都渋谷区渋谷３丁目６－３","13113","渋谷区","35.6579422942","139.7051027314","コンビニエンスストア"
"130843551002721240","03-5766-8778","ローソン渋谷三丁目店","13","２８－８","150-0002","渋谷駅,代官山駅","東京都渋谷区渋谷３丁目","東京都渋谷区渋谷３丁目２８－８","13113","渋谷区","35.656050483","139.7043248831","コンビニエンスストア"
"132770104179031350","03-3463-4550","ローソン／神泉駅前店","13","２３－４","150-0044","神泉駅,渋谷駅","東京都渋谷区円山町","東京都渋谷区円山町２３－４","13113","渋谷区","35.6569562034","139.69386671","コンビニエンスストア"
"135532834140061960","03-5456-9133","ファミリーマート／渋谷宇田川交番前店","13","３２－１５","150-0042","渋谷駅,神泉駅","東京都渋谷区宇田川町","東京都渋谷区宇田川町３２－１５","13113","渋谷区","35.6609608433","139.697775201","コンビニエンスストア"
"131043346174851340","03-5456-4127","ファミリーマート／道玄坂中央店","13","１１－１","150-0043","神泉駅,渋谷駅","東京都渋谷区道玄坂２丁目","東京都渋谷区道玄坂２丁目１１－１","13113","渋谷区","35.657978134","139.696153473","コンビニエンスストア"
"132042207136660960","03-3780-0788","デイリーヤマザキ渋谷宇田川町店","13","１３－１６","150-0042","渋谷駅,神泉駅","東京都渋谷区宇田川町","東京都渋谷区宇田川町１３－１６","13113","渋谷区","35.6614058061","139.6983691312","コンビニエンスストア"
"138220107155141950","03-3374-4361","ミニストップ代々木二丁目店","13","１６－２","151-0053","新宿駅,新線新宿駅","東京都渋谷区代々木２丁目","東京都渋谷区代々木２丁目１６－２","13113","渋谷区","35.6864140877","139.6958771866","コンビニエンスストア"
"520000033411430001","03-5413-7085","ファミリーマート／神宮前二丁目店","13","３２－１","150-0001","明治神宮前〈原宿〉駅,原宿駅","東京都渋谷区神宮前２丁目","東京都渋谷区神宮前２丁目３２－１","13113","渋谷区","35.6721738401","139.7090037521","コンビニエンスストア"
"131400725187061160","03-5358-2361","ファミリーマート／代々木駅前店","13","３８－５","151-0053","代々木駅,南新宿駅","東京都渋谷区代々木１丁目","東京都渋谷区代々木１丁目３８－５","13113","渋谷区","35.6829085617","139.701548877","コンビニエンスストア"
"134962233146170610","03-5354-5843","ファミリーマート／渋谷本町一丁目店","13","１６－３","151-0071","幡ヶ谷駅,初台駅","東京都渋谷区本町１丁目","東京都渋谷区本町１丁目１６－３","13113","渋谷区","35.6790146246","139.6813057374","コンビニエンスストア"
"136200956159070370","03-3446-3177","セブン‐イレブン／広尾駅前店","13","５－２","150-0012","広尾駅,恵比寿駅","東京都渋谷区広尾５丁目","東京都渋谷区広尾５丁目５－２","13113","渋谷区","35.6505543805","139.722051664","コンビニエンスストア"
